EGYPTSAT-A (MISRSAT-A)  
1 44047U 19008A   25174.51185105  .00000406  00000+0  72000-4 0  9994
2 44047  98.0197 239.4923 0001946  99.9222 260.2205 14.72363079340466
EMISAT                  
1 44078U 19018A   25174.40517050  .00000163  00000+0  60306-4 0  9991
2 44078  98.2862 231.0277 0017633 215.3583 144.6439 14.43780630328289
JILIN-1 GAOFEN 3A       
1 44312U 19032C   25174.36643847  .00005885  00000+0  25675-3 0  9992
2 44312  44.9819 156.9452 0011119  47.3668 312.8148 15.23054994333042
XIAOXIANG 4             
1 44313U 19032D   25174.46881177  .00043923  00000+0  62896-3 0  9995
2 44313  44.9900  88.5900 0014444 134.0676 226.1409 15.55416946333905
WT 1A                   
1 44315U 19032F   25173.86078521  .00018399  00000+0  47180-3 0  9999
2 44315  44.9846 109.8640 0014496 103.8592 256.3909 15.39044247333499
WT 1B                   
1 44316U 19032G   25174.48244463  .00005193  00000+0  26503-3 0  9993
2 44316  44.9755 204.6612 0015592   2.2303 357.8643 15.17767780332448
PROX-1                  
1 44339U 19036A   25173.56239848  .00007409  00000+0  91931-3 0  9990
2 44339  23.9982 336.5029 0006712 222.2185 137.7795 14.80191135320034
NPSAT1                  
1 44340U 19036B   25173.79512780  .00003740  00000+0  57607-3 0  9992
2 44340  23.9999  29.4515 0008448 123.8487 236.2813 14.69645133319472
FORMOSAT 7-3            
1 44343U 19036E   25174.51711914  .00002926  00000+0  17453-3 0  9996
2 44343  23.9984 119.6451 0000735 359.8176   0.2327 15.05793081329148
FORMOSAT 7-1            
1 44349U 19036L   25174.45501221  .00003343  00000+0  20310-3 0  9993
2 44349  23.9991 296.1222 0002198  73.6190 286.4554 15.05683437330865
FORMOSAT 7-4            
1 44350U 19036M   25173.81367523  .00003318  00000+0  20178-3 0  9993
2 44350  23.9999   2.5853 0000769 352.6459   7.4032 15.05626631330128
FORMOSAT 7-2            
1 44351U 19036N   25174.36638149  .00003256  00000+0  19701-3 0  9991
2 44351  23.9993  53.1267 0001054  30.0091 330.0472 15.05731799329775
FORMOSAT 7-6            
1 44353U 19036Q   25173.57119212  .00002854  00000+0  17011-3 0  9995
2 44353  23.9972 239.3969 0001492  95.9044 264.1629 15.05691573327836
FORMOSAT 7-5            
1 44358U 19036V   25174.34327416  .00002909  00000+0  17409-3 0  9995
2 44358  23.9973 173.8865 0000117 341.6071  18.4428 15.05652328328566
METEOR-M2 2             
1 44387U 19038A   25174.40802538  .00000049  00000+0  40880-4 0  9992
2 44387  98.8749 152.2255 0001292  26.1067 334.0176 14.24211922310221
SONATE                  
1 44400U 19038Q   25174.33609851  .00555664  15325-3  73854-3 0  9997
2 44400  97.6725 203.3989 0009009 187.8046 172.3096 16.06641229331772
COSMOS 2535             
1 44421U 19039A   25174.52789495  .00000799  00000+0  86732-4 0  9999
2 44421  97.6177 210.7891 0007822 336.4795  23.6064 14.90786558323088
QIANSHENG 1-01          
1 44486U 19052A   25174.26939003  .00163497  00000+0  86166-3 0  9993
2 44486  97.3550 254.8863 0000117 317.7874  42.3385 15.80213464323994
GLOBAL-4                
1 44499U 19054E   25174.19836443  .00011897  00000+0  30643-3 0  9990
2 44499  45.0119 103.1236 0005189 184.2847 175.7997 15.39325159324732
ZY-1 02D                
1 44528U 19059A   25174.50715932  .00000076  00000+0  41278-4 0  9996
2 44528  98.3672 242.7159 0002772 105.6235 254.5257 14.35442415302884
TAURUS-1 (JINNIUZUO 1)  
1 44530U 19059C   25174.51419532  .00003526  00000+0  65289-3 0  9997
2 44530  98.6079 314.5702 0008582   0.6102 359.5109 14.65982736305989
ZHUHAI-1 03A            
1 44534U 19060A   25174.46848402  .00117256  00000+0  62411-3 0  9999
2 44534  97.5207 322.4254 0005069 140.1899 219.9740 15.80105046321486
ZHUHAI-1 03B            
1 44536U 19060C   25174.47704864  .00010717  00000+0  33522-3 0  9990
2 44536  97.5182 315.0941 0013965 168.7114 191.4444 15.33229634321024
ZHUHAI-1 03C            
1 44537U 19060D   25174.46289761  .00016988  00000+0  39051-3 0  9993
2 44537  97.5442 318.0598 0019878 140.0346 220.2368 15.42531640321247
ZHUHAI-1 03D            
1 44538U 19060E   25174.53803467  .00009829  00000+0  33497-3 0  9991
2 44538  97.5014 310.0311 0013057 149.5225 210.6777 15.30505770320913
ZHUHAI-1 03E            
1 44539U 19060F   25174.51241905  .00008182  00000+0  30711-3 0  9990
2 44539  97.5210 311.9780 0011173 201.6180 158.4589 15.27419125320788
ATLAS 5 CENTAUR DEB     
1 44694U 18079BG  25173.18070461 -.00000125  00000+0  00000+0 0  9994
2 44694  13.1968  68.4875 4749758 241.7599  62.5464  1.77432612 40156
GAOFEN-7                
1 44703U 19072A   25174.48394536  .00003341  00000+0  15207-3 0  9996
2 44703  97.2912 243.3192 0010548 180.0447 180.0790 15.21329183313104
STARLINK-1010           
1 44716U 19074D   25174.21622996  .00071796  00000+0  12582-2 0  9998
2 44716  53.0556 257.9035 0006851 307.1072  52.9310 15.49930834309984
JILIN-1 GAOFEN 2A       
1 44777U 19075A   25174.51617913  .00006261  00000+0  23021-3 0  9998
2 44777  97.5323 247.3644 0006675 279.1229  80.9254 15.28241682309915
NINGXIA-1 1             
1 44779U 19076A   25174.52983181 -.00000088  00000+0  27144-4 0  9998
2 44779  45.0081 342.5124 0011381 259.2143 100.7410 14.01926556287528
NINGXIA-1 5             
1 44783U 19076E   25174.54296805 -.00000082  00000+0  30907-4 0  9990
2 44783  45.0080 341.8032 0011387 247.5079 112.4550 14.01950758287533
KL-ALPHA A              
1 44785U 19077A   25174.50440418  .00000055  00000+0  61065-4 0  9998
2 44785  88.9098 262.1795 0013168  79.4741 280.7896 13.55997583277129
CARTOSAT-3              
1 44804U 19081A   25174.46050830  .00002866  00000+0  13916-3 0  9998
2 44804  97.4807 235.9395 0012613 328.9756  31.0732 15.19217049308956
JILIN-1 GAOFEN 2B       
1 44836U 19086A   25174.48118104  .00004181  00000+0  22529-3 0  9991
2 44836  97.5312 244.2569 0017268 124.4222 235.8645 15.15226386306075
DUCHIFAT-3              
1 44854U 19089C   25174.49951010  .00030358  00000+0  57168-3 0  9998
2 44854  36.9430 266.6189 0003321  68.3570 291.7540 15.47634304305102
ANGELS                  
1 44876U 19092D   25173.27686678  .00019656  00000+0  41847-3 0  9991
2 44876  97.4552  12.0316 0008110  85.9322 274.2854 15.44957667306101
TIANQIN 1 (CAS-6)       
1 44879U 19093A   25174.46454132  .00001668  00000+0  16703-3 0  9992
2 44879  97.8075 256.0806 0012415 160.3832 199.7867 14.92692657298482
ETRSS-1                 
1 44880U 19093B   25174.40162677  .00001843  00000+0  18327-3 0  9997
2 44880  97.8080 256.2749 0012581 161.8897 198.2772 14.92850009298474
TIANYAN 01              
1 44881U 19093C   25174.50210742  .00000604  00000+0  75806-4 0  9996
2 44881  97.7923 249.8609 0013790 179.8795 180.2426 14.85625391298149
TIANYAN 02              
1 44882U 19093D   25174.48965788  .00003255  00000+0  27195-3 0  9993
2 44882  97.8203 262.1214 0011265 152.7260 207.4556 14.99189945298763
CBERS 4A                
1 44883U 19093E   25174.47739424  .00000697  00000+0  95276-4 0  9992
2 44883  97.7927 247.3454 0001010 205.5266 154.5898 14.81587344297965
WEILAI 1R               
1 44884U 19093F   25174.48276191  .00002482  00000+0  22435-3 0  9991
2 44884  97.8100 259.4669 0010776 156.1086 204.0637 14.96345849298705
FLORIPASAT-1            
1 44885U 19093G   25174.50346701  .00003293  00000+0  27934-3 0  9990
2 44885  97.8158 262.1329 0011297 156.7961 203.3774 14.98591871298838
SHUNTIAN                
1 44886U 19093H   25174.46089426  .00002015  00000+0  20134-3 0  9990
2 44886  97.8211 259.7618 0012669 171.1356 189.0089 14.92559821298624
2019-093L               
1 44889U 19093L   25174.46394442  .00001780  00000+0  18225-3 0  9996
2 44889  97.7889 252.0095 0013243 157.5449 202.6352 14.91700736298258
ELEKTRO-L 3             
1 44903U 19095A   25173.65935271 -.00000090  00000+0  00000+0 0  9998
2 44903   0.0777 158.0009 0000486 353.9281  72.5678  1.00270722 20104
GONETS-M 14             
1 44905U 19096A   25174.51372767  .00000005  00000+0 -32714-4 0  9990
2 44905  82.5240 306.9836 0013459 211.6185 148.4087 12.42893957249137
GONETS-M 15             
1 44906U 19096B   25173.97542920  .00000011  00000+0  95949-5 0  9996
2 44906  82.5259 307.7147 0014972 236.0552 123.9105 12.42896270249053
GONETS-M 16             
1 44907U 19096C   25174.48590452  .00000014  00000+0  27827-4 0  9999
2 44907  82.5205 306.5131 0010267 278.5159  81.4757 12.42854542249116
RS-44 & BREEZE-KM R/B   
1 44909U 19096E   25173.84445537  .00000032  00000+0  91140-4 0  9992
2 44909  82.5205 218.4656 0216249 264.5446  93.0954 12.79741395256389
JILIN-1 KUANFU 01       
1 45016U 20003A   25174.50345372  .00002432  00000+0  15021-3 0  9991
2 45016  97.5412 249.8758 0002046 201.6614 158.4529 15.10816013301195
XINGYUN-2 01            
1 45602U 20028A   25174.47198772  .00001808  00000+0  11651-3 0  9996
2 45602  97.4653 170.0875 0009710   9.1754 350.9651 15.09532495280680
XINGYUN-2 02            
1 45603U 20028B   25174.47143968  .00001384  00000+0  90315-4 0  9998
2 45603  97.5081 182.2948 0013067  68.0685 292.1932 15.09419994280687
HAIYANG-1D              
1 45721U 20036A   25174.51711166  .00000082  00000+0  45302-4 0  9994
2 45721  98.6304 119.4349 0002671  87.4662 272.6828 14.34115490263560
M2 PATHFINDER           
1 45727U 20037E   25174.46027198  .00002442  00000+0  18958-3 0  9998
2 45727  97.8130 357.2083 0012231 283.8243  76.1620 15.02259272271593
GAOFEN DUOMO (GFDM)     
1 45856U 20042A   25174.52016922  .00000561  00000+0  87070-4 0  9999
2 45856  97.8240 241.3924 0013035 149.1078 211.0902 14.76764646268076
ZINYUAN-3               
1 45939U 20051A   25174.52973125  .00003319  00000+0  15085-3 0  9998
2 45939  97.3267 247.8417 0004085 172.5513 187.5784 15.21423566272826
TYVAK-0172              
1 46267U 20059C   25174.32691031  .00014259  00000+0  45500-3 0  9992
2 46267  97.7757  34.4202 0002748 100.2787 259.8764 15.32615378263069
